{"type": "FeatureCollection", "features": [ {"type": "Feature", "properties": {"norad_id": 38717, "name": "FENGYUN 1C DEB", "group": "fengyun-1c-debris", "lat": -0.7061075975802735, "lon": 5.385558659885389, "alt_km": 788.8329745781575, "timestamp": "2025-12-15T22:44:29.218171+00:00", "meta": {"OBJECT_NAME": "FENGYUN 1C DEB", "OBJECT_ID": "1999-025ETJ", "EPOCH": "2025-12-12T20:54:28.154016", "MEAN_MOTION": 14.19935752, "ECCENTRICITY": 0.00567733, "INCLINATION": 99.1601, "RA_OF_ASC_NODE": 2.0891, "ARG_OF_PERICENTER": 353.6825, "MEAN_ANOMALY": 128.2601, "EPHEMERIS_TYPE": 0, "CLASSIFICATION_TYPE": "U", "NORAD_CAT_ID": 38717, "ELEMENT_SET_NO": 999, "REV_AT_EPOCH": 58428, "BSTAR": 0.0025532852, "MEAN_MOTION_DOT": 5.468e-05, "MEAN_MOTION_DDOT": 0}, "tle": {"line1": "1 38717U 99025ETJ 25346.87115919  .00005468  00000+0  25533-2 0  9994", "line2": "2 38717  99.1601   2.0891 0056773 353.6825 128.2601 14.19935752584287"}}, "geometry": {"type": "Point", "coordinates": [5.385558659885389, -0.7061075975802735]}}, {"type": "Feature", "properties": {"norad_id": 38722, "name": "FENGYUN 1C DEB", "group": "fengyun-1c-debris", "lat": 61.92302250114169, "lon": -73.3402540393401, "alt_km": 602.4250169725401, "timestamp": "2025-12-15T22:44:29.218181+00:00", "meta": {"OBJECT_NAME": "FENGYUN 1C DEB", "OBJECT_ID": "1999-025ETP", "EPOCH": "2025-12-11T12:50:39.493248", "MEAN_MOTION": 14.58349213, "ECCENTRICITY": 0.01472173, "INCLINATION": 99.3522, "RA_OF_ASC_NODE": 83.7029, "ARG_OF_PERICENTER": 98.5109, "MEAN_ANOMALY": 263.2801, "EPHEMERIS_TYPE": 0, "CLASSIFICATION_TYPE": "U", "NORAD_CAT_ID": 38722, "ELEMENT_SET_NO": 999, "REV_AT_EPOCH": 70446, "BSTAR": 0.0050298284, "MEAN_MOTION_DOT": 0.0002709, "MEAN_MOTION_DDOT": 0}, "tle": {"line1": "1 38722U 99025ETP 25345.53517932  .00027090  00000+0  50298-2 0  9994", "line2": "2 38722  99.3522  83.7029 0147217  98.5109 263.2801 14.58349213704460"}}, "geometry": {"type": "Point", "coordinates": [-73.3402540393401, 61.92302250114169]}}, {"type": "Feature", "properties": {"norad_id": 38725, "name": "FENGYUN 1C DEB", "group": "fengyun-1c-debris", "lat": 17.57806472135906, "lon": -61.86235781562353, "alt_km": 746.994449920674, "timestamp": "2025-12-15T22:44:29.218191+00:00", "meta": {"OBJECT_NAME": "FENGYUN 1C DEB", "OBJECT_ID": "1999-025ETS", "EPOCH": "2025-12-10T13:50:08.556288", "MEAN_MOTION": 14.42766759, "ECCENTRICITY": 0.0034699, "INCLINATION": 98.871, "RA_OF_ASC_NODE": 109.715, "ARG_OF_PERICENTER": 263.0773, "MEAN_ANOMALY": 96.6468, "EPHEMERIS_TYPE": 0, "CLASSIFICATION_TYPE": "U", "NORAD_CAT_ID": 38725, "ELEMENT_SET_NO": 999, "REV_AT_EPOCH": 73321, "BSTAR": 0.0046037, "MEAN_MOTION_DOT": 0.0001544, "MEAN_MOTION_DDOT": 0}, "tle": {"line1": "1 38725U 99025ETS 25344.57648792  .00015440  00000+0  46037-2 0  9991", "line2": "2 38725  98.8710 109.7150 0034699 263.0773  96.6468 14.42766759733218"}}, "geometry": {"type": "Point", "coordinates": [-61.86235781562353, 17.57806472135906]}}, {"type": "Feature", "properties": {"norad_id": 38726, "name": "FENGYUN 1C DEB", "group": "fengyun-1c-debris", "lat": 68.42492271204854, "lon": -141.39624451858487, "alt_km": 532.1693422140579, "timestamp": "2025-12-15T22:44:29.218204+00:00", "meta": {"OBJECT_NAME": "FENGYUN 1C DEB", "OBJECT_ID": "1999-025ETT", "EPOCH": "2025-12-14T07:55:38.364096", "MEAN_MOTION": 15.03515609, "ECCENTRICITY": 0.00236546, "INCLINATION": 99.1373, "RA_OF_ASC_NODE": 12.6777, "ARG_OF_PERICENTER": 120.0885, "MEAN_ANOMALY": 240.2685, "EPHEMERIS_TYPE": 0, "CLASSIFICATION_TYPE": "U", "NORAD_CAT_ID": 38726, "ELEMENT_SET_NO": 999, "REV_AT_EPOCH": 69879, "BSTAR": 0.0066796574, "MEAN_MOTION_DOT": 0.00092734, "MEAN_MOTION_DDOT": 0}, "tle": {"line1": "1 38726U 99025ETT 25348.33030514  .00092734  00000+0  66797-2 0  9993", "line2": "2 38726  99.1373  12.6777 0023654 120.0885 240.2685 15.03515609698795"}}, "geometry": {"type": "Point", "coordinates": [-141.39624451858487, 68.42492271204854]}}, {"type": "Feature", "properties": {"norad_id": 38728, "name": "FENGYUN 1C DEB", "group": "fengyun-1c-debris", "lat": 7.111341120732187, "lon": -23.445795798304133, "alt_km": 618.8572906794298, "timestamp": "2025-12-15T22:44:29.218215+00:00", "meta": {"OBJECT_NAME": "FENGYUN 1C DEB", "OBJECT_ID": "1999-025ETV", "EPOCH": "2025-12-13T05:38:48.079680", "MEAN_MOTION": 14.70600409, "ECCENTRICITY": 0.00752341, "INCLINATION": 99.259, "RA_OF_ASC_NODE": 334.6427, "ARG_OF_PERICENTER": 53.321, "MEAN_ANOMALY": 3.2262, "EPHEMERIS_TYPE": 0, "CLASSIFICATION_TYPE": "U", "NORAD_CAT_ID": 38728, "ELEMENT_SET_NO": 999, "REV_AT_EPOCH": 65618, "BSTAR": 0.002264039, "MEAN_MOTION_DOT": 0.00014343, "MEAN_MOTION_DDOT": 0}, "tle": {"line1": "1 38728U 99025ETV 25347.23527870  .00014343  00000+0  22640-2 0  9998", "line2": "2 38728  99.2590 334.6427 0075234  53.3210   3.2262 14.70600409656180"}}, "geometry": {"type": "Point", "coordinates": [-23.445795798304133, 7.111341120732187]}}, {"type": "Feature", "properties": {"norad_id": 38789, "name": "FENGYUN 1C DEB", "group": "fengyun-1c-debris", "lat": 24.98089974971893, "lon": -128.0001907263751, "alt_km": 592.6153416088218, "timestamp": "2025-12-15T22:44:29.218225+00:00", "meta": {"OBJECT_NAME": "FENGYUN 1C DEB", "OBJECT_ID": "1999-025EUD", "EPOCH": "2025-12-09T22:24:51.255648", "MEAN_MOTION": 14.45777362, "ECCENTRICITY": 0.02079599, "INCLINATION": 98.8559, "RA_OF_ASC_NODE": 229.8858, "ARG_OF_PERICENTER": 33.6569, "MEAN_ANOMALY": 29.055, "EPHEMERIS_TYPE": 0, "CLASSIFICATION_TYPE": "U", "NORAD_CAT_ID": 38789, "ELEMENT_SET_NO": 999, "REV_AT_EPOCH": 61805, "BSTAR": 0.00090846035, "MEAN_MOTION_DOT": 4.156e-05, "MEAN_MOTION_DDOT": 0}, "tle": {"line1": "1 38789U 99025EUD 25343.93392657  .00004156  00000+0  90846-3 0  9996", "line2": "2 38789  98.8559 229.8858 0207959  33.6569  29.0550 14.45777362618054"}}, "geometry": {"type": "Point", "coordinates": [-128.0001907263751, 24.98089974971893]}}, {"type": "Feature", "properties": {"norad_id": 38795, "name": "FENGYUN 1C DEB", "group": "fengyun-1c-debris", "lat": -75.29512917306857, "lon": 156.71588444541206, "alt_km": 781.684296142038, "timestamp": "2025-12-15T22:44:29.218236+00:00", "meta": {"OBJECT_NAME": "FENGYUN 1C DEB", "OBJECT_ID": "1999-025EUK", "EPOCH": "2025-12-13T08:02:07.844928", "MEAN_MOTION": 13.29906905, "ECCENTRICITY": 0.0502419, "INCLINATION": 98.7003, "RA_OF_ASC_NODE": 10.1935, "ARG_OF_PERICENTER": 254.3383, "MEAN_ANOMALY": 100.1784, "EPHEMERIS_TYPE": 0, "CLASSIFICATION_TYPE": "U", "NORAD_CAT_ID": 38795, "ELEMENT_SET_NO": 999, "REV_AT_EPOCH": 78520, "BSTAR": 0.0047174224, "MEAN_MOTION_DOT": 4.389e-05, "MEAN_MOTION_DDOT": 0}, "tle": {"line1": "1 38795U 99025EUK 25347.33481302  .00004389  00000+0  47174-2 0  9990", "line2": "2 38795  98.7003  10.1935 0502419 254.3383 100.1784 13.29906905785206"}}, "geometry": {"type": "Point", "coordinates": [156.71588444541206, -75.29512917306857]}}, {"type": "Feature", "properties": {"norad_id": 38797, "name": "FENGYUN 1C DEB", "group": "fengyun-1c-debris", "lat": 72.9648969172254, "lon": -150.35314706340273, "alt_km": 1154.143434866879, "timestamp": "2025-12-15T22:44:29.218246+00:00", "meta": {"OBJECT_NAME": "FENGYUN 1C DEB", "OBJECT_ID": "1999-025EUM", "EPOCH": "2025-12-11T10:46:32.675520", "MEAN_MOTION": 13.61609837, "ECCENTRICITY": 0.02449104, "INCLINATION": 99.4842, "RA_OF_ASC_NODE": 238.3367, "ARG_OF_PERICENTER": 224.6313, "MEAN_ANOMALY": 133.4881, "EPHEMERIS_TYPE": 0, "CLASSIFICATION_TYPE": "U", "NORAD_CAT_ID": 38797, "ELEMENT_SET_NO": 999, "REV_AT_EPOCH": 59265, "BSTAR": 0.00041911499, "MEAN_MOTION_DOT": 3.48e-06, "MEAN_MOTION_DDOT": 0}, "tle": {"line1": "1 38797U 99025EUM 25345.44898930  .00000348  00000+0  41911-3 0  9996", "line2": "2 38797  99.4842 238.3367 0244910 224.6313 133.4881 13.61609837592654"}}, "geometry": {"type": "Point", "coordinates": [-150.35314706340273, 72.9648969172254]}}, {"type": "Feature", "properties": {"norad_id": 38799, "name": "FENGYUN 1C DEB", "group": "fengyun-1c-debris", "lat": 12.498944896211984, "lon": 63.51280042875397, "alt_km": 631.9336074910934, "timestamp": "2025-12-15T22:44:29.218256+00:00", "meta": {"OBJECT_NAME": "FENGYUN 1C DEB", "OBJECT_ID": "1999-025EUP", "EPOCH": "2025-12-14T23:28:47.015616", "MEAN_MOTION": 14.48765117, "ECCENTRICITY": 0.01635791, "INCLINATION": 98.4058, "RA_OF_ASC_NODE": 64.4259, "ARG_OF_PERICENTER": 343.5032, "MEAN_ANOMALY": 16.0875, "EPHEMERIS_TYPE": 0, "CLASSIFICATION_TYPE": "U", "NORAD_CAT_ID": 38799, "ELEMENT_SET_NO": 999, "REV_AT_EPOCH": 64071, "BSTAR": 0.00063500214, "MEAN_MOTION_DOT": 2.787e-05, "MEAN_MOTION_DDOT": 0}, "tle": {"line1": "1 38799U 99025EUP 25348.97832194  .00002787  00000+0  63500-3 0  9996", "line2": "2 38799  98.4058  64.4259 0163579 343.5032  16.0875 14.48765117640712"}}, "geometry": {"type": "Point", "coordinates": [63.51280042875397, 12.498944896211984]}}, {"type": "Feature", "properties": {"norad_id": 38801, "name": "FENGYUN 1C DEB", "group": "fengyun-1c-debris", "lat": 13.365128253663634, "lon": 38.42363210058562, "alt_km": 594.3350044336057, "timestamp": "2025-12-15T22:44:29.218266+00:00", "meta": {"OBJECT_NAME": "FENGYUN 1C DEB", "OBJECT_ID": "1999-025EUR", "EPOCH": "2025-12-14T23:38:20.156064", "MEAN_MOTION": 14.2482334, "ECCENTRICITY": 0.03468339, "INCLINATION": 98.3742, "RA_OF_ASC_NODE": 39.5088, "ARG_OF_PERICENTER": 345.3815, "MEAN_ANOMALY": 131.5103, "EPHEMERIS_TYPE": 0, "CLASSIFICATION_TYPE": "U", "NORAD_CAT_ID": 38801, "ELEMENT_SET_NO": 999, "REV_AT_EPOCH": 64392, "BSTAR": 0.00040763026, "MEAN_MOTION_DOT": 1.732e-05, "MEAN_MOTION_DDOT": 0}, "tle": {"line1": "1 38801U 99025EUR 25348.98495551  .00001732  00000+0  40763-3 0  9998", "line2": "2 38801  98.3742  39.5088 0346833 345.3815 131.5103 14.24823340643923"}}, "geometry": {"type": "Point", "coordinates": [38.42363210058562, 13.365128253663634]}}]}